NORAD_CAT_ID,OBJECT_NAME,OBJECT_TYPE,EPOCH,MEAN_MOTION,ECCENTRICITY,INCLINATION,RA_OF_ASC_NODE,ARG_OF_PERICENTER,MEAN_ANOMALY,BSTAR,MEAN_MOTION_DOT,MEAN_MOTION_DDOT,TLE_LINE0,TLE_LINE1,TLE_LINE2,SEMIMAJOR_AXIS,PERIOD,APOGEE,PERIGEE,DECAYED
51125.0,STARLINK-3387,PAYLOAD,2022-06-22 13:12:35,15.08839157,0.0001694,53.2177,267.0731,54.4096,305.7054,-5.1345000000000006e-06,-3.700000000000001e-06,0.0,0 STARLINK-3387,1 51125U 22005X   22173.55041172 -.00000370  00000-0 -51345-5 0  9998,2 51125  53.2177 267.0731 0001694  54.4096 305.7054 15.08839157 25115,6917.8830000000025,95.438,540.92,538.576,0.0
51125.0,STARLINK-3387,PAYLOAD,2022-06-22 22:44:55,15.08831325,0.0001691,53.2174,265.2892,52.8392,307.2754,-6.6946e-05,-1.353e-05,0.0,0 STARLINK-3387,1 51125U 22005X   22173.94785928 -.00001353  00000-0 -66946-4 0  9999,2 51125  53.2174 265.2892 0001691  52.8392 307.2754 15.08831325 25177,6917.906999999997,95.438,540.942,538.602,0.0
51125.0,STARLINK-3387,PAYLOAD,2022-06-23 09:52:36,15.08838431,0.0001619,53.2166,263.2073,47.7338,312.3791,-1.562e-05,-5.37e-06,0.0,0 STARLINK-3387,1 51125U 22005X   22174.41153454 -.00000537  00000-0 -15620-4 0  9991,2 51125  53.2166 263.2073 0001619  47.7338 312.3791 15.08838431 25241,6917.885,95.438,540.87,538.63,0.0
51125.0,STARLINK-3387,PAYLOAD,2022-06-23 13:03:22,15.088416699999998,0.0001638,53.2169,262.6132,49.0878,311.0255,1.3509e-05,-7.3e-07,0.0,0 STARLINK-3387,1 51125U 22005X   22174.54401144 -.00000073  00000-0  13509-4 0  9995,2 51125  53.2169 262.6132 0001638  49.0878 311.0255 15.08841670 24146,6917.875,95.437,540.873,538.607,0.0
51125.0,STARLINK-3387,PAYLOAD,2022-06-24 11:18:47,15.08830017,0.0001614,53.2168,258.4506,50.0956,310.0178,4.503800000000001e-05,4.29e-06,0.0,0 STARLINK-3387,1 51125U 22005X   22175.47137860  .00000429  00000-0  45038-4 0  9995,2 51125  53.2168 258.4506 0001614  50.0956 310.0178 15.08830017 25402,6917.911,95.438,540.8919999999998,538.659,0.0
51125.0,STARLINK-3387,PAYLOAD,2022-06-24 12:54:10,15.08830077,0.0001619,53.2167,258.1532,49.9575,310.1559,4.4478e-05,4.2e-06,0.0,0 STARLINK-3387,1 51125U 22005X   22175.53761899  .00000420  00000-0  44478-4 0  9995,2 51125  53.2167 258.1532 0001619  49.9575 310.1559 15.08830077 24292,6917.911,95.438,540.896,538.656,0.0
51125.0,STARLINK-3387,PAYLOAD,2022-06-25 12:44:56,15.08843648,0.0001629,53.2171,253.6926,47.8136,312.2995,6.7e-05,7.79e-06,0.0,0 STARLINK-3387,1 51125U 22005X   22176.53121275  .00000779  00000-0  67000-4 0  9997,2 51125  53.2171 253.6926 0001629  47.8136 312.2995 15.08843648 25561,6917.869000000002,95.437,540.861,538.607,0.0
51125.0,STARLINK-3387,PAYLOAD,2022-06-26 04:38:48,15.08834966,0.0001618,53.2169,250.7188,47.5377,312.5751,4.9957e-05,5.07e-06,0.0,0 STARLINK-3387,1 51125U 22005X   22177.19361954  .00000507  00000-0  49957-4 0  9990,2 51125  53.2169 250.7188 0001618  47.5377 312.5751 15.08834966 25665,6917.896,95.438,540.88,538.641,0.0
51125.0,STARLINK-3387,PAYLOAD,2022-06-26 12:35:44,15.08838047,0.0001599,53.2169,249.2323,46.9737,313.1388,6.908399999999999e-05,8.12e-06,0.0,0 STARLINK-3387,1 51125U 22005X   22177.52481711  .00000812  00000-0  69084-4 0  9993,2 51125  53.2169 249.2323 0001599  46.9737 313.1388 15.08838047 24598,6917.886,95.438,540.8580000000002,538.645,0.0
51125.0,STARLINK-3387,PAYLOAD,2022-06-26 22:08:02,15.08843586,0.0001612,53.2168,247.4484,46.6991,313.4136,7.9887e-05,9.84e-06,0.0,0 STARLINK-3387,1 51125U 22005X   22177.92225309  .00000984  00000-0  79887-4 0  9998,2 51125  53.2168 247.4484 0001612  46.6991 313.4136 15.08843586 25779,6917.869000000002,95.437,540.85,538.619,0.0
51125.0,STARLINK-3387,PAYLOAD,2022-06-27 10:51:07,15.08845248,0.0001659,53.2168,245.0696,44.7635,315.3491,2.9981e-05,1.89e-06,0.0,0 STARLINK-3387,1 51125U 22005X   22178.45217166  .00000189  00000-0  29981-4 0  9996,2 51125  53.2168 245.0696 0001659  44.7635 315.3491 15.08845248 24730,6917.864000000001,95.437,540.877,538.582,0.0
51125.0,STARLINK-3387,PAYLOAD,2022-06-28 04:20:22,15.08836838,0.0001662,53.2168,241.7984,44.17,315.9425,2.4254e-05,9.8e-07,0.0,0 STARLINK-3387,1 51125U 22005X   22179.18081657  .00000098  00000-0  24254-4 0  9998,2 51125  53.2168 241.7984 0001662  44.1700 315.9425 15.08836838 25968,6917.89,95.438,540.905,538.605,0.0
51125.0,STARLINK-3387,PAYLOAD,2022-06-28 10:41:54,15.08839272,0.0001618,53.2169,240.6088,44.4076,315.7045,4.5338e-05,4.34e-06,0.0,0 STARLINK-3387,1 51125U 22005X   22179.44577418  .00000434  00000-0  45338-4 0  9992,2 51125  53.2169 240.6088 0001618  44.4076 315.7045 15.08839272 24883,6917.8830000000025,95.438,540.867,538.628,0.0
51125.0,STARLINK-3387,PAYLOAD,2022-06-28 13:52:41,15.0884226,0.0001665,53.2167,240.0142,43.0532,317.059,3.3905e-05,2.52e-06,0.0,0 STARLINK-3387,1 51125U 22005X   22179.57825246  .00000252  00000-0  33905-4 0  9996,2 51125  53.2167 240.0142 0001665  43.0532 317.0590 15.08842260 24904,6917.873000000001,95.437,540.89,538.587,0.0
51125.0,STARLINK-3387,PAYLOAD,2022-06-29 12:08:05,15.08830923,0.0001727,53.2166,235.8509,46.2139,313.8995,-7.2569e-05,-1.443e-05,0.0,0 STARLINK-3387,1 51125U 22005X   22180.50562379 -.00001443  00000-0 -72569-4 0  9990,2 51125  53.2166 235.8509 0001727  46.2139 313.8995 15.08830923 26165,6917.908,95.438,540.9680000000002,538.578,0.0
51125.0,STARLINK-3387,PAYLOAD,2022-06-29 13:43:29,15.08830917,0.000173,53.2165,235.5534,46.2813,313.8322,-7.1793e-05,-1.4300000000000004e-05,0.0,0 STARLINK-3387,1 51125U 22005X   22180.57186405 -.00001430  00000-0 -71793-4 0  9993,2 51125  53.2165 235.5534 0001730  46.2813 313.8322 15.08830917 25056,6917.908,95.438,540.97,538.576,0.0
51125.0,STARLINK-3387,PAYLOAD,2022-06-30 13:34:16,15.08832699,0.0001747,53.2163,231.0932,44.8589,315.2544,-2.6389e-05,-7.08e-06,0.0,0 STARLINK-3387,1 51125U 22005X   22181.56546638 -.00000708  00000-0 -26389-4 0  9999,2 51125  53.2163 231.0932 0001747  44.8589 315.2544 15.08832699 26321,6917.903,95.438,540.976,538.559,0.0
51125.0,STARLINK-3387,PAYLOAD,2022-06-30 19:55:48,15.08832023,0.0001774,53.2163,229.9038,44.4608,315.6526,9.9396e-07,-2.72e-06,0.0,0 STARLINK-3387,1 51125U 22005X   22181.83042711 -.00000272  00000-0  99396-6 0  9997,2 51125  53.2163 229.9038 0001774  44.4608 315.6526 15.08832023 25247,6917.905,95.438,540.997,538.543,0.0
51125.0,STARLINK-3387,PAYLOAD,2022-07-01 13:25:03,15.08831482,0.0001745,53.2165,226.6329,45.1729,314.9405,6.0309e-05,6.72e-06,0.0,0 STARLINK-3387,1 51125U 22005X   22182.55906908  .00000672  00000-0  60309-4 0  9997,2 51125  53.2165 226.6329 0001745  45.1729 314.9405 15.08831482 25354,6917.906,95.438,540.979,538.564,0.0
51125.0,STARLINK-3387,PAYLOAD,2022-07-01 19:46:36,15.08832043,0.0001756,53.2165,225.4435,45.3198,314.7937,6.096600000000001e-05,6.82e-06,0.0,0 STARLINK-3387,1 51125U 22005X   22182.82402995  .00000682  00000-0  60966-4 0  9994,2 51125  53.2165 225.4435 0001756  45.3198 314.7937 15.08832043 25399,6917.905,95.438,540.984,538.555,0.0
51125.0,STARLINK-3387,PAYLOAD,2022-07-02 03:43:31,15.0883527,0.000176,53.2166,223.9566,45.701,314.4126,5.0137e-05,5.1e-06,0.0,0 STARLINK-3387,1 51125U 22005X   22183.15522976  .00000510  00000-0  50137-4 0  9992,2 51125  53.2166 223.9566 0001760  45.7010 314.4126 15.08835270 26562,6917.895,95.438,540.977,538.5419999999998,0.0
51125.0,STARLINK-3387,PAYLOAD,2022-07-02 13:15:50,15.08837793,0.0001792,53.2165,222.1724,46.1495,313.9645,6.386199999999999e-05,7.28e-06,0.0,0 STARLINK-3387,1 51125U 22005X   22183.55266857  .00000728  00000-0  63862-4 0  9999,2 51125  53.2165 222.1724 0001792  46.1495 313.9645 15.08837793 25500,6917.887,95.438,540.992,538.512,0.0
51125.0,STARLINK-3387,PAYLOAD,2022-07-03 03:34:18,15.08842594,0.0001805,53.2165,219.4961,46.2004,313.9137,7.7211e-05,9.41e-06,0.0,0 STARLINK-3387,1 51125U 22005X   22184.14882480  .00000941  00000-0  77211-4 0  9991,2 51125  53.2165 219.4961 0001805  46.2004 313.9137 15.08842594 26719,6917.871999999999,95.437,540.986,538.489,0.0
51125.0,STARLINK-3387,PAYLOAD,2022-07-03 11:31:13,15.08845067,0.0001832,53.2165,218.0092,46.4083,313.7061,7.353e-05,8.82e-06,0.0,0 STARLINK-3387,1 51125U 22005X   22184.48002266  .00000882  00000-0  73530-4 0  9998,2 51125  53.2165 218.0092 0001832  46.4083 313.7061 15.08845067 25641,6917.865,95.437,540.997,538.4630000000002,0.0
51125.0,STARLINK-3387,PAYLOAD,2022-07-03 19:28:09,15.08846381,0.0001845,53.2165,216.5225,46.8191,313.2955,7.6061e-05,9.23e-06,0.0,0 STARLINK-3387,1 51125U 22005X   22184.81122045  .00000923  00000-0  76061-4 0  9991,2 51125  53.2165 216.5225 0001845  46.8191 313.2955 15.08846381 25692,6917.861,95.437,541.002,538.45,0.0
51125.0,STARLINK-3387,PAYLOAD,2022-07-04 08:11:15,15.08838551,0.0001922,53.2164,214.1434,50.8459,309.2704,1.5015000000000004e-06,-2.64e-06,0.0,0 STARLINK-3387,1 51125U 22005X   22185.34114774 -.00000264  00000-0  15015-5 0  9992,2 51125  53.2164 214.1434 0001922  50.8459 309.2704 15.08838551 26895,6917.885,95.438,541.0790000000002,538.42,0.0
51125.0,STARLINK-3387,PAYLOAD,2022-07-04 11:22:01,15.08835817,0.0001839,53.2165,213.5488,48.7334,311.3816,-3.5693e-05,-8.56e-06,0.0,0 STARLINK-3387,1 51125U 22005X   22185.47363071 -.00000856  00000-0 -35693-4 0  9993,2 51125  53.2165 213.5488 0001839  48.7334 311.3816 15.08835817 25791,6917.893,95.438,541.03,538.486,0.0
51125.0,STARLINK-3387,PAYLOAD,2022-07-04 19:18:57,15.08834143,0.0001832,53.2166,212.0619,51.0391,309.0764,-3.6095e-05,-8.62e-06,0.0,0 STARLINK-3387,1 51125U 22005X   22185.80483230 -.00000862  00000-0 -36095-4 0  9994,2 51125  53.2166 212.0619 0001832  51.0391 309.0764 15.08834143 25848,6917.898,95.438,541.031,538.496,0.0
51125.0,STARLINK-3387,PAYLOAD,2022-07-05 11:12:48,15.08839568,0.0001866,53.2166,209.088,49.7575,310.358,-3.0427e-05,-7.72e-06,0.0,0 STARLINK-3387,1 51125U 22005X   22186.46722903 -.00000772  00000-0 -30427-4 0  9993,2 51125  53.2166 209.0880 0001866  49.7575 310.3580 15.08839568 27062,6917.882,95.438,541.038,538.456,0.0
